[{"OBJECT_NAME":"IRIDIUM 174","OBJECT_ID":"2023-068U","EPOCH":"2026-03-09T22:04:44.769504","MEAN_MOTION":14.7225064,"ECCENTRICITY":0.00025981,"INCLINATION":86.6101,"RA_OF_ASC_NODE":35.1661,"ARG_OF_PERICENTER":80.0805,"MEAN_ANOMALY":280.0705,"EPHEMERIS_TYPE":0,"CLASSIFICATION_TYPE":"U","NORAD_CAT_ID":56728,"ELEMENT_SET_NO":999,"REV_AT_EPOCH":15141,"BSTAR":0.00022876362,"MEAN_MOTION_DOT":1.467e-5,"MEAN_MOTION_DDOT":0},{"OBJECT_NAME":"THORAD AGENA D DEB","OBJECT_ID":"1969-082BW","EPOCH":"2026-03-09T15:37:14.797344","MEAN_MOTION":14.70117084,"ECCENTRICITY":0.0024365,"INCLINATION":69.9601,"RA_OF_ASC_NODE":165.4322,"ARG_OF_PERICENTER":333.8348,"MEAN_ANOMALY":26.1563,"EPHEMERIS_TYPE":0,"CLASSIFICATION_TYPE":"U","NORAD_CAT_ID":4207,"ELEMENT_SET_NO":999,"REV_AT_EPOCH":95231,"BSTAR":0.000813,"MEAN_MOTION_DOT":4.846e-5,"MEAN_MOTION_DDOT":0}]
